OBJECT_NAME,OBJECT_ID,EPOCH,MEAN_MOTION,ECCENTRICITY,INCLINATION,RA_OF_ASC_NODE,ARG_OF_PERICENTER,MEAN_ANOMALY,NORAD_CAT_ID,ELEMENT_SET_NO,REV_AT_EPOCH,BSTAR,MEAN_MOTION_DOT,MEAN_MOTION_DDOT
THORAD AGENA D DEB,1970-025HP,2026-03-20T20:34:05.607840,14.01826604,0.00827439,100.1902,217.9913,227.2943,132.1231,4993.0,999.0,82635.0,0.00062341003,9.22e-06,0.0
THORAD AGENA D DEB,1970-025HS,2026-03-21T03:44:13.610976,14.10962132,0.00679843,100.3353,187.3444,314.731,44.8334,4996.0,999.0,80581.0,0.0015238611,2.74e-05,0.0
THORAD AGENA D DEB,1970-025HT,2026-03-20T03:35:00.343392,14.00603003,0.0044127,99.939,337.4089,41.5999,318.8506,4997.0,999.0,82205.0,0.00088041685,1.269e-05,0.0
THORAD AGENA D DEB,1970-025HU,2026-03-21T05:57:22.815072,13.53075631,0.00089496,100.1854,70.2624,298.0112,78.6926,4998.0,999.0,76135.0,4.5286653e-05,-1.7e-07,0.0
THORAD AGENA D DEB,1970-025HW,2026-03-21T07:26:14.294688,12.70572565,0.04886818,99.7958,341.9736,148.2629,339.5433,5000.0,999.0,58050.0,0.0018213427,5.56e-06,0.0
COSMOS 397 DEB,1971-015D,2026-03-20T13:53:49.040448,13.72148518,0.0619872,65.8368,195.0475,309.0714,45.6731,5010.0,999.0,63670.0,0.0006942,2.491e-05,0.0
COSMOS 397 DEB,1971-015E,2026-03-20T23:39:25.018272,14.29104902,0.0383215,65.671,43.83,56.2982,307.4022,5011.0,999.0,70826.0,0.0017458399,9.776e-05,0.0
COSMOS 397 DEB,1971-015F,2026-03-20T19:22:17.381568,14.44352961,0.03581803,65.7333,222.3434,251.2298,104.9628,5012.0,999.0,68771.0,0.0017094054,0.00012961,0.0
COSMOS 397 DEB,1971-015G,2026-03-21T05:21:42.987744,13.17979361,0.08395636,65.8097,262.2891,137.8196,229.066,5013.0,999.0,59294.0,0.00080633703,2.025e-05,0.0
COSMOS 397 DEB,1971-015H,2026-03-21T00:19:00.556032,13.85688633,0.05725425,65.5796,186.897,299.0683,55.419,5014.0,999.0,66429.0,0.00065211529,2.669e-05,0.0
COSMOS 397 DEB,1971-015J,2026-03-21T05:25:28.002720,13.66780339,0.0635704,65.7054,80.0807,5.609,355.1659,5015.0,999.0,65276.0,0.0015752664,5.424e-05,0.0
COSMOS 397 DEB,1971-015K,2026-03-20T22:08:20.310720,13.64764245,0.06422029,65.8141,290.3412,124.8379,241.4822,5016.0,999.0,64115.0,0.0011292356,3.774e-05,0.0
COSMOS 397 DEB,1971-015L,2026-03-20T21:40:59.214432,13.48201709,0.07112731,65.7069,295.9462,170.4923,191.0461,5017.0,999.0,62766.0,0.00067283796,1.985e-05,0.0
COSMOS 397 DEB,1971-015M,2026-03-20T14:41:06.076896,12.8052483,0.1007045,65.7139,312.1936,244.4771,104.8844,5018.0,999.0,56775.0,5.6448e-05,4.4e-07,0.0
COSMOS 397 DEB,1971-015N,2026-03-21T03:50:43.015776,14.32120432,0.03759181,65.6832,20.8278,62.4917,301.3852,5019.0,999.0,69961.0,0.0020368961,0.00012,0.0
COSMOS 374 DEB,1970-089W,2026-03-20T23:45:28.625760,13.52877338,0.07067453,62.9261,173.9684,161.815,200.9604,5020.0,999.0,66680.0,0.0006786809,2.202e-05,0.0
THORAD AGENA D DEB,1970-025HY,2026-03-20T20:12:24.095520,14.2515874,0.00846241,99.816,35.8043,16.5721,343.819,5024.0,999.0,85942.0,0.00073705081,1.743e-05,0.0
THORAD AGENA D DEB,1970-025HZ,2026-03-20T22:45:35.707680,13.50791156,0.00439551,100.0741,146.6373,229.3103,313.0404,5025.0,999.0,74748.0,0.00042901499,2.31e-06,0.0
THORAD AGENA D DEB,1970-025JA,2026-03-20T15:52:49.854432,13.77475197,0.0035003,100.1907,341.3983,310.8649,78.8881,5026.0,999.0,77240.0,0.0011873,1.136e-05,0.0
COSMOS 374 DEB,1970-089Z,2026-03-20T18:17:59.308800,13.1379836,0.0643729,63.3092,106.183,293.1778,60.2686,5028.0,999.0,59503.0,0.00068442268,6.39e-06,0.0
SCOUT A DEB,1970-067C,2026-03-19T23:12:27.428832,14.31410394,0.00204607,89.9425,251.6804,250.7209,109.1775,5036.0,999.0,84380.0,0.00083860863,2.239e-05,0.0
COSMOS 397 DEB,1971-015P,2026-03-20T03:41:26.496960,13.87429685,0.05634689,65.6077,42.5745,343.93,14.4505,5042.0,999.0,63976.0,0.0022292286,9.456e-05,0.0
SL-8 DEB,1971-020C,2026-03-21T02:52:39.060192,13.73638196,0.00129906,65.8231,348.5818,248.8774,220.1492,5052.0,999.0,75711.0,6.1511047e-05,-2.3e-07,0.0
THORAD AGENA D DEB,1970-025JE,2026-03-21T03:28:36.135552,14.17788758,0.01439185,99.9841,160.2562,31.0085,329.9484,5060.0,999.0,86508.0,0.00026849036,5.52e-06,0.0
THORAD AGENA D DEB,1970-025JL,2026-03-20T14:10:17.810688,14.03536659,0.0066256,99.8811,305.703,10.0857,350.1619,5066.0,999.0,82823.0,0.00053823,8.09e-06,0.0
THORAD AGENA D DEB,1970-025JM,2026-03-20T10:52:18.386976,13.65261873,0.00064507,100.0092,331.7391,105.3298,75.2318,5067.0,999.0,77321.0,0.00047462292,3.38e-06,0.0
COSMOS 374 DEB,1970-089AP,2026-03-20T02:24:14.642208,12.8740523,0.09769603,62.8046,347.409,197.9847,158.418,5076.0,999.0,58422.0,7.977819e-05,8.2e-07,0.0
COSMOS 397 DEB,1971-015Q,2026-03-21T03:38:06.311616,13.2918253,0.07990723,65.7114,20.7567,305.7054,47.2127,5088.0,999.0,61529.0,0.00071763803,1.974e-05,0.0
COSMOS 397 DEB,1971-015S,2026-03-21T07:01:08.351328,14.09177328,0.04585934,65.7063,47.0979,58.4407,306.0605,5091.0,999.0,69121.0,0.0015577745,7.176e-05,0.0
COSMOS 397 DEB,1971-015U,2026-03-21T04:14:09.956832,14.46805135,0.03334856,65.6826,103.071,206.4804,151.8921,5094.0,999.0,67638.0,0.0017901221,0.00013014,0.0
COSMOS 397 DEB,1971-015W,2026-03-21T06:43:17.737824,13.3673293,0.07561637,65.7363,52.9082,146.5046,218.6279,5097.0,999.0,62545.0,0.00027847947,6.98e-06,0.0
COSMOS 397 DEB,1971-015X,2026-03-21T06:29:06.447264,13.47503224,0.07093001,65.8301,122.1425,7.5858,353.5265,5098.0,999.0,63921.0,0.00053219174,1.505e-05,0.0
THORAD AGENA D DEB,1970-025JN,2026-03-20T05:09:59.675328,13.56866889,0.01874778,99.3078,174.1823,302.8015,84.2509,5129.0,999.0,72157.0,0.0019472128,1.505e-05,0.0
COSMOS 397 DEB,1971-015AG,2026-03-21T04:34:38.796384,14.12502715,0.04458165,65.705,248.4151,69.8419,295.0033,5144.0,999.0,68586.0,0.0011631516,5.49e-05,0.0
THORAD AGENA D DEB,1970-025JQ,2026-03-20T21:18:01.063584,13.62734331,0.00423949,100.0472,301.8664,238.9541,137.618,5146.0,999.0,77728.0,0.00014899367,6.9e-07,0.0
THORAD AGENA D DEB,1970-025JS,2026-03-21T00:58:51.950784,14.28661091,0.00499915,99.6358,120.2808,25.972,334.3952,5149.0,999.0,84903.0,0.00069824816,1.726e-05,0.0
THORAD AGENA D DEB,1970-025JT,2026-03-20T16:39:28.962144,13.94594534,0.00831004,99.4669,162.7636,335.5922,24.1313,5150.0,999.0,79788.0,0.0010259648,1.364e-05,0.0
THORAD AGENA D DEB,1970-025JU,2026-03-20T21:37:43.966848,13.65311501,0.00024115,100.0854,307.2719,44.4084,73.4553,5151.0,999.0,27173.0,0.00045086841,3.18e-06,0.0
THORAD AGENA D DEB,1970-025JW,2026-03-20T19:40:28.932384,13.58057493,0.00347268,99.9667,193.5699,113.5278,38.2502,5153.0,999.0,75721.0,0.00058326699,3.77e-06,0.0
COSMOS 397 DEB,1971-015AJ,2026-03-21T02:08:44.533248,14.57902421,0.02844088,65.3538,218.0711,29.1886,332.4773,5155.0,999.0,73488.0,0.00089012085,7.036e-05,0.0
COSMOS 397 DEB,1971-015AK,2026-03-21T03:07:43.231008,13.69533646,0.06264775,65.6855,0.7441,53.6063,312.1125,5156.0,999.0,65337.0,0.0013403519,4.733e-05,0.0
THORAD AGENA D DEB,1970-025JZ,2026-03-21T04:27:55.437984,13.79193629,0.00325397,100.034,325.0954,149.4048,335.5062,5183.0,999.0,79252.0,0.00047823274,4.42e-06,0.0
THORAD AGENA D DEB,1970-025KB,2026-03-21T03:29:01.557024,13.97809399,0.00651035,99.6429,149.4769,104.4997,256.3398,5185.0,999.0,78956.0,0.0011073529,1.547e-05,0.0
COSMOS 397 DEB,1971-015AM,2026-03-21T02:50:19.392864,13.78954042,0.05790011,65.6447,77.0851,130.0874,235.2457,5187.0,999.0,65987.0,0.0004896055,1.696e-05,0.0
COSMOS 374 DEB,1970-089AZ,2026-03-20T17:48:57.803616,12.61158252,0.08895897,63.9942,100.4053,202.7553,153.1591,5188.0,999.0,86103.0,0.00027861027,1.63e-06,0.0
COSMOS 397 DEB,1971-015AP,2026-03-21T02:05:49.314912,15.30784559,0.00833736,65.5196,0.4561,63.7514,297.2163,5192.0,999.0,75807.0,0.0034380327,0.00115912,0.0
COSMOS 397 DEB,1971-015AT,2026-03-20T21:20:20.287680,13.47578674,0.06940978,65.533,262.1612,37.6467,327.1124,5197.0,999.0,62190.0,0.00059492378,1.572e-05,0.0
THORAD AGENA D DEB,1970-025KE,2026-03-20T15:04:28.784352,13.17585686,0.0218371,99.8354,118.6703,286.0984,233.6062,5203.0,999.0,67134.0,0.0010646,4.25e-06,0.0
THORAD AGENA D DEB,1970-025KG,2026-03-20T04:33:09.012960,12.92616605,0.03847238,99.8484,330.6391,204.7287,312.9877,5220.0,999.0,61999.0,-0.0015723917,-6.33e-06,0.0
COSMOS 397 DEB,1971-015AW,2026-03-21T04:50:30.171840,13.61602756,0.06549985,65.7181,250.1454,337.8931,19.5016,5222.0,999.0,64925.0,0.00033221629,1.009e-05,0.0
SL-8 DEB,1970-102D,2026-03-20T12:51:43.094016,13.92310268,0.00172594,74.0204,273.3777,242.7469,148.5055,5225.0,999.0,79474.0,0.0003126592,3.78e-06,0.0
COSMOS 374 DEB,1970-089BF,2026-03-21T06:19:57.265536,12.82271713,0.08272774,62.873,284.4636,241.8611,109.6419,5240.0,999.0,54016.0,0.00033002721,2.66e-06,0.0
THOR ABLESTAR DEB,1965-065Q,2026-03-20T21:33:03.709440,13.424776,0.00398607,90.1339,304.6227,244.9399,133.8469,5265.0,999.0,96077.0,0.00030841005,1.84e-06,0.0
COSMOS 397 DEB,1971-015BB,2026-03-20T21:24:45.489024,13.43444283,0.07368178,65.5538,153.4236,337.1114,19.8586,5272.0,999.0,63415.0,0.0004231922,1.208e-05,0.0
COSMOS 397 DEB,1971-015BE,2026-03-20T07:40:19.056864,13.0107418,0.0914198,65.7302,99.437,337.3175,18.9748,5277.0,999.0,25037.0,0.00025964,5.44e-06,0.0
COSMOS 397 DEB,1971-015BF,2026-03-20T10:02:46.276224,13.43440363,0.07367577,65.6538,88.9292,335.3051,21.4315,5280.0,999.0,63128.0,0.00094700029,2.831e-05,0.0
SL-8 DEB,1971-035D,2026-03-19T23:48:13.859712,14.88131142,0.00109695,74.0246,44.1027,239.3649,120.6451,5301.0,999.0,89866.0,0.00062199005,5.702e-05,0.0
COSMOS 252 DEB,1968-097CJ,2026-03-20T15:15:33.206400,13.21141356,0.0685796,61.3258,312.282,271.6898,80.5724,5322.0,999.0,70213.0,0.00047634,5.86e-06,0.0
COSMOS 374 DEB,1970-089BS,2026-03-20T19:12:46.602432,12.99781771,0.0764712,62.958,12.3171,328.2207,27.471,5337.0,999.0,13901.0,0.0016923,1.97e-05,0.0
THORAD AGENA D DEB,1970-025KL,2026-03-20T17:50:43.469952,13.86905172,0.0045169,99.914,349.5691,64.5436,318.3374,5347.0,999.0,74465.0,0.00064843,7.15e-06,0.0
THORAD AGENA D DEB,1970-025KN,2026-03-20T21:23:16.533312,14.24110422,0.00555779,99.8136,311.8125,49.8977,310.705,5349.0,999.0,73734.0,0.0018480153,4.27e-05,0.0
